STARLINK-31975          
1 59886U 24100B   26068.54015810 -.00008701  00000+0 -30686-3 0  9992
2 59886  43.0001 126.2718 0000859 177.9327 182.1528 15.27599660101134
TEVEL2-6                
1 63215U 25052F   26068.64958975  .00021046  00000+0  70909-3 0  9996
2 63215  97.4016 325.0381 0004769  95.6604 264.5181 15.30760889 54861
